CCSDS_OMM_VERS = 2.0
CREATION_DATE  = 
ORIGINATOR     = 

OBJECT_NAME    = COSMOS 2550
OBJECT_ID      = 2021-056A
CENTER_NAME    = EARTH
REF_FRAME      = TEME
TIME_SYSTEM    = UTC
MEAN_ELEMENT_THEORY = SGP/SGP4

EPOCH          = 2025-11-14T18:02:48.817824
MEAN_MOTION    = 15.33890068
ECCENTRICITY   = .0008347
INCLINATION    = 67.1442
RA_OF_ASC_NODE = 28.5905
ARG_OF_PERICENTER = 271.4822
MEAN_ANOMALY   = 88.5376

EPHEMERIS_TYPE = 0
CLASSIFICATION_TYPE = U
NORAD_CAT_ID   = 48865
ELEMENT_SET_NO = 999
REV_AT_EPOCH   = 24583
BSTAR          = .2157E-4
MEAN_MOTION_DOT = .519E-5
MEAN_MOTION_DDOT = 0

CCSDS_OMM_VERS = 2.0
CREATION_DATE  = 
ORIGINATOR     = 

OBJECT_NAME    = CZ-2C R/B
OBJECT_ID      = 2022-058K
CENTER_NAME    = EARTH
REF_FRAME      = TEME
TIME_SYSTEM    = UTC
MEAN_ELEMENT_THEORY = SGP/SGP4

EPOCH          = 2025-11-16T08:00:58.992768
MEAN_MOTION    = 15.46719714
ECCENTRICITY   = .0048378
INCLINATION    = 50.1905
RA_OF_ASC_NODE = 178.0278
ARG_OF_PERICENTER = 88.9854
MEAN_ANOMALY   = 271.6656

EPHEMERIS_TYPE = 0
CLASSIFICATION_TYPE = U
NORAD_CAT_ID   = 52794
ELEMENT_SET_NO = 999
REV_AT_EPOCH   = 19254
BSTAR          = .67754E-3
MEAN_MOTION_DOT = .35824E-3
MEAN_MOTION_DDOT = 0

CCSDS_OMM_VERS = 2.0
CREATION_DATE  = 
ORIGINATOR     = 

OBJECT_NAME    = GSLV R/B
OBJECT_ID      = 2022-138AN
CENTER_NAME    = EARTH
REF_FRAME      = TEME
TIME_SYSTEM    = UTC
MEAN_ELEMENT_THEORY = SGP/SGP4

EPOCH          = 2025-11-16T10:25:56.992224
MEAN_MOTION    = 14.95941758
ECCENTRICITY   = .0020599
INCLINATION    = 87.3856
RA_OF_ASC_NODE = 204.2784
ARG_OF_PERICENTER = 196.6418
MEAN_ANOMALY   = 163.4139

EPHEMERIS_TYPE = 0
CLASSIFICATION_TYPE = U
NORAD_CAT_ID   = 54149
ELEMENT_SET_NO = 999
REV_AT_EPOCH   = 16699
BSTAR          = .41812E-3
MEAN_MOTION_DOT = .4727E-4
MEAN_MOTION_DDOT = 0

CCSDS_OMM_VERS = 2.0
CREATION_DATE  = 
ORIGINATOR     = 

OBJECT_NAME    = XRISM
OBJECT_ID      = 2023-137A
CENTER_NAME    = EARTH
REF_FRAME      = TEME
TIME_SYSTEM    = UTC
MEAN_ELEMENT_THEORY = SGP/SGP4

EPOCH          = 2025-11-15T16:02:57.597216
MEAN_MOTION    = 15.09958523
ECCENTRICITY   = .0007933
INCLINATION    = 31.0032
RA_OF_ASC_NODE = 300.2775
ARG_OF_PERICENTER = 329.7279
MEAN_ANOMALY   = 30.2900

EPHEMERIS_TYPE = 0
CLASSIFICATION_TYPE = U
NORAD_CAT_ID   = 57800
ELEMENT_SET_NO = 999
REV_AT_EPOCH   = 12053
BSTAR          = .5245E-3
MEAN_MOTION_DOT = .8826E-4
MEAN_MOTION_DDOT = 0

CCSDS_OMM_VERS = 2.0
CREATION_DATE  = 
ORIGINATOR     = 

OBJECT_NAME    = ACS3
OBJECT_ID      = 2024-077B
CENTER_NAME    = EARTH
REF_FRAME      = TEME
TIME_SYSTEM    = UTC
MEAN_ELEMENT_THEORY = SGP/SGP4

EPOCH          = 2025-11-15T12:14:26.702592
MEAN_MOTION    = 13.83853629
ECCENTRICITY   = .0058749
INCLINATION    = 97.3054
RA_OF_ASC_NODE = 281.1675
ARG_OF_PERICENTER = 23.0378
MEAN_ANOMALY   = 337.3397

EPHEMERIS_TYPE = 0
CLASSIFICATION_TYPE = U
NORAD_CAT_ID   = 59588
ELEMENT_SET_NO = 999
REV_AT_EPOCH   = 7837
BSTAR          = .30195E-1
MEAN_MOTION_DOT = .34038E-3
MEAN_MOTION_DDOT = 0

